[{"OBJECT_NAME":"OBJECT K","OBJECT_ID":"2025-155K","EPOCH":"2026-03-09T22:07:25.197888","MEAN_MOTION":15.34284916,"ECCENTRICITY":0.00088839,"INCLINATION":97.4419,"RA_OF_ASC_NODE":38.2399,"ARG_OF_PERICENTER":139.4299,"MEAN_ANOMALY":220.7607,"EPHEMERIS_TYPE":0,"CLASSIFICATION_TYPE":"U","NORAD_CAT_ID":64885,"ELEMENT_SET_NO":999,"REV_AT_EPOCH":6566,"BSTAR":0.00076172732,"MEAN_MOTION_DOT":0.00025288,"MEAN_MOTION_DDOT":0},{"OBJECT_NAME":"STARLINK-35674","OBJECT_ID":"2025-299R","EPOCH":"2026-03-09T17:45:50.309568","MEAN_MOTION":15.34683332,"ECCENTRICITY":0.00029294,"INCLINATION":43.0003,"RA_OF_ASC_NODE":168.7409,"ARG_OF_PERICENTER":355.3183,"MEAN_ANOMALY":4.7644,"EPHEMERIS_TYPE":0,"CLASSIFICATION_TYPE":"U","NORAD_CAT_ID":67117,"ELEMENT_SET_NO":999,"REV_AT_EPOCH":1312,"BSTAR":-0.0082098648,"MEAN_MOTION_DOT":-0.00272339,"MEAN_MOTION_DDOT":0}]
